{
  "links" : {
    "next" : "https://api.nasa.gov/neo/rest/v1/feed?start_date=2003-10-16&end_date=2003-10-16&detailed=true&api_key=t0TVs3DtDT2H8Oy2Zy8m2eVrNsAVKAexjcZXUckd",
    "prev" : "https://api.nasa.gov/neo/rest/v1/feed?start_date=2003-10-14&end_date=2003-10-14&detailed=true&api_key=t0TVs3DtDT2H8Oy2Zy8m2eVrNsAVKAexjcZXUckd",
    "self" : "https://api.nasa.gov/neo/rest/v1/feed?start_date=2003-10-15&end_date=2003-10-15&detailed=true&api_key=t0TVs3DtDT2H8Oy2Zy8m2eVrNsAVKAexjcZXUckd"
  },
  "element_count" : 4,
  "near_earth_objects" : {
    "2003-10-15" : [ {
      "links" : {
        "self" : "https://api.nasa.gov/neo/rest/v1/neo/3160847?api_key=t0TVs3DtDT2H8Oy2Zy8m2eVrNsAVKAexjcZXUckd"
      },
      "neo_reference_id" : "3160847",
      "name" : "(2003 TL1)",
      "nasa_jpl_url" : "http://ssd.jpl.nasa.gov/sbdb.cgi?sstr=3160847",
      "absolute_magnitude_h" : 19.9,
      "estimated_diameter" : {
        "kilometers" : {
          "estimated_diameter_min" : 0.2783267681,
          "estimated_diameter_max" : 0.6223575734
        },
        "meters" : {
          "estimated_diameter_min" : 278.3267680719,
          "estimated_diameter_max" : 622.3575733667
        },
        "miles" : {
          "estimated_diameter_min" : 0.1729441822,
          "estimated_diameter_max" : 0.3867149477
        },
        "feet" : {
          "estimated_diameter_min" : 913.1455937611,
          "estimated_diameter_max" : 2041.8556210042
        }
      },
      "is_potentially_hazardous_asteroid" : false,
      "close_approach_data" : [ {
        "close_approach_date" : "2003-10-15",
        "epoch_date_close_approach" : 1066201200000,
        "relative_velocity" : {
          "kilometers_per_second" : "4.9054524003",
          "kilometers_per_hour" : "17659.6286411284",
          "miles_per_hour" : "10973.0064742612"
        },
        "miss_distance" : {
          "astronomical" : "0.275752062",
          "lunar" : "107.2675552368",
          "kilometers" : "41251924",
          "miles" : "25632756"
        },
        "orbiting_body" : "Earth"
      } ],
      "orbital_data" : {
        "orbit_id" : "23",
        "orbit_determination_date" : "2017-04-06 09:13:43",
        "orbit_uncertainty" : "6",
        "minimum_orbit_intersection" : ".28225",
        "jupiter_tisserand_invariant" : "3.217",
        "epoch_osculation" : "2458000.5",
        "eccentricity" : ".5123568140569045",
        "semi_major_axis" : "2.57440483872512",
        "inclination" : "8.211360980357863",
        "ascending_node_longitude" : "246.3505994387612",
        "orbital_period" : "1508.737522450665",
        "perihelion_distance" : "1.255390977463239",
        "perihelion_argument" : "132.65075658",
        "aphelion_distance" : "3.893418699987002",
        "perihelion_time" : "2457453.234218856597",
        "mean_anomaly" : "130.5831387368227",
        "mean_motion" : ".238610092639074",
        "equinox" : "J2000"
      }
    }, {
      "links" : {
        "self" : "https://api.nasa.gov/neo/rest/v1/neo/3163746?api_key=t0TVs3DtDT2H8Oy2Zy8m2eVrNsAVKAexjcZXUckd"
      },
      "neo_reference_id" : "3163746",
      "name" : "(2003 UC5)",
      "nasa_jpl_url" : "http://ssd.jpl.nasa.gov/sbdb.cgi?sstr=3163746",
      "absolute_magnitude_h" : 20.1,
      "estimated_diameter" : {
        "kilometers" : {
          "estimated_diameter_min" : 0.2538370294,
          "estimated_diameter_max" : 0.5675968529
        },
        "meters" : {
          "estimated_diameter_min" : 253.8370293645,
          "estimated_diameter_max" : 567.5968528656
        },
        "miles" : {
          "estimated_diameter_min" : 0.1577269688,
          "estimated_diameter_max" : 0.3526882241
        },
        "feet" : {
          "estimated_diameter_min" : 832.7986794202,
          "estimated_diameter_max" : 1862.1944587557
        }
      },
      "is_potentially_hazardous_asteroid" : false,
      "close_approach_data" : [ {
        "close_approach_date" : "2003-10-15",
        "epoch_date_close_approach" : 1066201200000,
        "relative_velocity" : {
          "kilometers_per_second" : "30.547389287",
          "kilometers_per_hour" : "109970.6014332994",
          "miles_per_hour" : "68331.455096152"
        },
        "miss_distance" : {
          "astronomical" : "0.1233269653",
          "lunar" : "47.9741897583",
          "kilometers" : "18449452",
          "miles" : "11463958"
        },
        "orbiting_body" : "Earth"
      } ],
      "orbital_data" : {
        "orbit_id" : "20",
        "orbit_determination_date" : "2017-04-06 09:13:40",
        "orbit_uncertainty" : "0",
        "minimum_orbit_intersection" : ".111627",
        "jupiter_tisserand_invariant" : "4.829",
        "epoch_osculation" : "2458000.5",
        "eccentricity" : ".818559645958966",
        "semi_major_axis" : "1.185380794305873",
        "inclination" : "36.80976778828254",
        "ascending_node_longitude" : "30.96555557031796",
        "orbital_period" : "471.3953091678408",
        "perihelion_distance" : ".2150759109922997",
        "perihelion_argument" : "210.63547235686",
        "aphelion_distance" : "2.155685677619446",
        "perihelion_time" : "2458065.783349136774",
        "mean_anomaly" : "310.1437429856334",
        "mean_motion" : ".7636902468026503",
        "equinox" : "J2000"
      }
    }, {
      "links" : {
        "self" : "https://api.nasa.gov/neo/rest/v1/neo/3163760?api_key=t0TVs3DtDT2H8Oy2Zy8m2eVrNsAVKAexjcZXUckd"
      },
      "neo_reference_id" : "3163760",
      "name" : "(2003 UR12)",
      "nasa_jpl_url" : "http://ssd.jpl.nasa.gov/sbdb.cgi?sstr=3163760",
      "absolute_magnitude_h" : 17.9,
      "estimated_diameter" : {
        "kilometers" : {
          "estimated_diameter_min" : 0.6991252322,
          "estimated_diameter_max" : 1.5632915441
        },
        "meters" : {
          "estimated_diameter_min" : 699.1252322458,
          "estimated_diameter_max" : 1563.2915440869
        },
        "miles" : {
          "estimated_diameter_min" : 0.4344161447,
          "estimated_diameter_max" : 0.97138403
        },
        "feet" : {
          "estimated_diameter_min" : 2293.7180269613,
          "estimated_diameter_max" : 5128.9094295021
        }
      },
      "is_potentially_hazardous_asteroid" : false,
      "close_approach_data" : [ {
        "close_approach_date" : "2003-10-15",
        "epoch_date_close_approach" : 1066201200000,
        "relative_velocity" : {
          "kilometers_per_second" : "36.7811500535",
          "kilometers_per_hour" : "132412.1401927418",
          "miles_per_hour" : "82275.7545547623"
        },
        "miss_distance" : {
          "astronomical" : "0.4096072544",
          "lunar" : "159.3372192383",
          "kilometers" : "61276376",
          "miles" : "38075372"
        },
        "orbiting_body" : "Earth"
      } ],
      "orbital_data" : {
        "orbit_id" : "16",
        "orbit_determination_date" : "2017-04-06 09:13:37",
        "orbit_uncertainty" : "1",
        "minimum_orbit_intersection" : ".241743",
        "jupiter_tisserand_invariant" : "2.695",
        "epoch_osculation" : "2458000.5",
        "eccentricity" : ".5673833615625467",
        "semi_major_axis" : "2.431309040545923",
        "inclination" : "60.47995025622254",
        "ascending_node_longitude" : "194.0180863628362",
        "orbital_period" : "1384.709508156014",
        "perihelion_distance" : "1.051824744123567",
        "perihelion_argument" : "122.2650289914172",
        "aphelion_distance" : "3.810793336968279",
        "perihelion_time" : "2458424.749180418272",
        "mean_anomaly" : "249.7027108927962",
        "mean_motion" : ".2599823268920885",
        "equinox" : "J2000"
      }
    }, {
      "links" : {
        "self" : "https://api.nasa.gov/neo/rest/v1/neo/3164412?api_key=t0TVs3DtDT2H8Oy2Zy8m2eVrNsAVKAexjcZXUckd"
      },
      "neo_reference_id" : "3164412",
      "name" : "(2003 UO25)",
      "nasa_jpl_url" : "http://ssd.jpl.nasa.gov/sbdb.cgi?sstr=3164412",
      "absolute_magnitude_h" : 22.6,
      "estimated_diameter" : {
        "kilometers" : {
          "estimated_diameter_min" : 0.0802703167,
          "estimated_diameter_max" : 0.1794898848
        },
        "meters" : {
          "estimated_diameter_min" : 80.2703167283,
          "estimated_diameter_max" : 179.4898847799
        },
        "miles" : {
          "estimated_diameter_min" : 0.049877647,
          "estimated_diameter_max" : 0.1115298092
        },
        "feet" : {
          "estimated_diameter_min" : 263.3540659348,
          "estimated_diameter_max" : 588.8775935812
        }
      },
      "is_potentially_hazardous_asteroid" : false,
      "close_approach_data" : [ {
        "close_approach_date" : "2003-10-15",
        "epoch_date_close_approach" : 1066201200000,
        "relative_velocity" : {
          "kilometers_per_second" : "9.315995786",
          "kilometers_per_hour" : "33537.5848296489",
          "miles_per_hour" : "20838.9509737338"
        },
        "miss_distance" : {
          "astronomical" : "0.195934472",
          "lunar" : "76.2185134888",
          "kilometers" : "29311380",
          "miles" : "18213248"
        },
        "orbiting_body" : "Earth"
      } ],
      "orbital_data" : {
        "orbit_id" : "14",
        "orbit_determination_date" : "2017-04-06 09:13:35",
        "orbit_uncertainty" : "2",
        "minimum_orbit_intersection" : ".164832",
        "jupiter_tisserand_invariant" : "5.948",
        "epoch_osculation" : "2458000.5",
        "eccentricity" : ".228982647249184",
        "semi_major_axis" : "1.016477554395882",
        "inclination" : "15.47493071345896",
        "ascending_node_longitude" : "211.8751749681112",
        "orbital_period" : "374.3217964975495",
        "perihelion_distance" : ".7837218331209368",
        "perihelion_argument" : "28.55821560099998",
        "aphelion_distance" : "1.249233275670828",
        "perihelion_time" : "2458036.648381997521",
        "mean_anomaly" : "325.2346787152891",
        "mean_motion" : ".9617393466489114",
        "equinox" : "J2000"
      }
    } ]
  }
}